STARLINK-2241           
1 48586U 21041AK  22265.56644664 -.00004051  00000+0 -25301-3 0  9992
2 48586  53.0553  56.4897 0002231  77.2329 282.8909 15.06424047 74924
STARLINK-2242           
1 48587U 21041AL  22264.84032732 -.00000530  00000+0 -16688-4 0  9997
2 48587  53.0573  59.7554 0001105  84.0970 276.0145 15.06395763 74413
STARLINK-2244           
1 48588U 21041AM  22264.68644108 -.00001112  00000+0 -55760-4 0  9997
2 48588  53.0562  50.4421 0001375  91.5794 268.5353 15.06392769 74532
STARLINK-2245           
1 48589U 21041AN  22264.81544221 -.00000326  00000+0 -29606-5 0  9995
2 48589  53.0552  49.8666 0001370  73.8374 286.2766 15.06393557 74550
STARLINK-2248           
1 48591U 21041AQ  22264.79975660  .00000026  00000+0  20643-4 0  9996
2 48591  53.0554  49.9440 0001272  83.5594 276.5540 15.06397477 75456
STARLINK-2249           
1 48592U 21041AR  22264.41180746 -.00002794  00000+0 -16870-3 0  9991
2 48592  53.0526  61.7052 0001303  78.0867 282.0267 15.06409745 74352
STARLINK-2250           
1 48593U 21041AS  22265.14625208  .00000748  00000+0  69077-4 0  9993
2 48593  53.0556  58.3833 0001515  72.7689 287.3466 15.06404764 74763
STARLINK-2251           
1 48594U 21041AT  22265.57288215 -.00022643  00000+0 -15019-2 0  9999
2 48594  53.0579  26.5526 0001952  66.5137 293.6057 15.06499786 75405
STARLINK-2252           
1 48595U 21041AU  22265.52591615 -.00001719  00000+0 -96601-4 0  9995
2 48595  53.0572  56.6763 0000959  55.8286 304.2794 15.06382750 75799
STARLINK-2253           
1 48596U 21041AV  22264.42013268 -.00005096  00000+0 -32335-3 0  9992
2 48596  53.0555  61.6399 0001270  72.5096 287.6031 15.06411139 74818
STARLINK-2255           
1 48597U 21041AW  22264.82558987 -.00000660  00000+0 -25402-4 0  9999
2 48597  53.0540  59.8145 0001613  74.2880 285.8287 15.06388362 75682
STARLINK-2256           
1 48598U 21041AX  22264.69657594 -.00000028  00000+0  17008-4 0  9999
2 48598  53.0557  60.3985 0001405  91.0384 269.0766 15.06391419 74856
STARLINK-2274           
1 48599U 21041AY  22265.05456853 -.00000177  00000+0  69892-5 0  9990
2 48599  53.0575  33.7986 0000828  74.9417 285.1663 15.06397366 76075
STARLINK-2275           
1 48600U 21041AZ  22265.55631364  .00000838  00000+0  75168-4 0  9995
2 48600  53.0568  46.5331 0001173  92.3051 267.8072 15.06401062 75932
STARLINK-2713           
1 48602U 21041BB  22265.55216356 -.00015189  00000+0 -10013-2 0  9990
2 48602  53.0554  31.5553 0000935 104.0461 256.0632 15.06462948 76146
STARLINK-2714           
1 48603U 21041BC  22265.53141161  .00000659  00000+0  63160-4 0  9997
2 48603  53.0547  26.6350 0001700  82.5169 277.6013 15.06393157 76210
STARLINK-2757           
1 48604U 21041BD  22264.80345889  .00001701  00000+0  13304-3 0  9993
2 48604  53.0554  59.9199 0001136  71.4648 288.6465 15.06400255 75682
FALCON 9 DEB            
1 48607U 21041BG  22264.66792697  .00001218  00000+0  12251-3 0  9996
2 48607  53.0387  87.1873 0012783 337.8434  22.1997 14.98494212 73992
FALCON 9 DEB            
1 48608U 21041BH  22264.82031282  .00001252  00000+0  12813-3 0  9993
2 48608  53.0346  89.2731 0012760 353.2620   6.8192 14.97587782 73976
FALCON 9 DEB            
1 48609U 21041BJ  22264.48086928  .00001317  00000+0  13051-3 0  9990
2 48609  53.0312  87.0770 0011130 334.3905  25.6528 14.98566665 73975
FALCON 9 DEB            
1 48610U 21041BK  22264.63095354  .00001298  00000+0  12765-3 0  9991
2 48610  53.0300  85.1601 0013953 329.7466  30.2712 14.98982018 74018
STARLINK-2758           
1 48638U 21044A   22264.62236639  .00000873  00000+0  77528-4 0  9993
2 48638  53.0545  35.7333 0001495  95.6592 264.4567 15.06397426 73100
STARLINK-2739           
1 48639U 21044B   22265.53648598  .00000970  00000+0  84009-4 0  9996
2 48639  53.0555  31.6373 0001327  77.5672 282.5466 15.06392014 74145
STARLINK-2736           
1 48640U 21044C   22264.80026741 -.00004733  00000+0 -29890-3 0  9996
2 48640  53.0561  35.2140 0001809  96.5232 263.5963 15.06419626 73963
STARLINK-2754           
1 48641U 21044D   22264.81268100 -.00001094  00000+0 -54561-4 0  9996
2 48641  53.0547  39.8751 0001434  68.8482 291.2660 15.06391028 73067
STARLINK-2646           
1 48642U 21044E   22265.09186328 -.00002013  00000+0 -11624-3 0  9993
2 48642  53.0549  38.6084 0001264  78.4863 281.6268 15.06412116 73943
STARLINK-2704           
1 48643U 21044F   22264.80804524  .00001586  00000+0  12532-3 0  9998
2 48643  53.0542  39.8961 0001080  60.1816 299.9280 15.06396634 73960
STARLINK-2695           
1 48644U 21044G   22264.87164908  .00000504  00000+0  52708-4 0  9990
2 48644  53.0559  39.6150 0001255  76.1618 283.9510 15.06400042 73078
STARLINK-2733           
1 48645U 21044H   22265.06701152 -.00003153  00000+0 -19288-3 0  9991
2 48645  53.0556  38.7471 0001239  67.6824 292.4297 15.06401226 74004
STARLINK-2732           
1 48646U 21044J   22264.86428985 -.00000626  00000+0 -23148-4 0  9992
2 48646  53.0573  39.6442 0001037  87.1150 272.9958 15.06385427 73074
STARLINK-2691           
1 48647U 21044K   22264.86060633  .00001338  00000+0  10870-3 0  9991
2 48647  53.0561  39.6643 0001257  88.1455 271.9678 15.06389737 73074
STARLINK-2521           
1 48648U 21044L   22264.74267509 -.00000501  00000+0 -14782-4 0  9990
2 48648  53.0544  40.3526 0001306  47.4359 312.6740 15.06389687 73056
STARLINK-2673           
1 48649U 21044M   22265.52037768 -.00001802  00000+0 -10207-3 0  9992
2 48649  53.0574  36.7021 0002306  75.6513 284.4732 15.06404086 74009
STARLINK-2672           
1 48650U 21044N   22264.78687399  .00000630  00000+0  61168-4 0  9991
2 48650  53.0558  40.0013 0001471  79.8935 280.2220 15.06400629 73899
STARLINK-2731           
1 48651U 21044P   22264.78319403 -.00000363  00000+0 -54927-5 0  9991
2 48651  53.0555  40.0117 0001608  75.1428 284.9739 15.06399766 73053
STARLINK-2727           
1 48652U 21044Q   22264.77950953 -.00002276  00000+0 -13393-3 0  9997
2 48652  53.0550  40.0408 0001996  70.3391 289.7813 15.06399970 73893
STARLINK-2720           
1 48653U 21044R   22265.57197897  .00001827  00000+0  14153-3 0  9991
2 48653  53.0580  36.4749 0001089  70.6193 289.4914 15.06396440 74013
STARLINK-2651           
1 48654U 21044S   22264.77213386 -.00000153  00000+0  86144-5 0  9998
2 48654  53.0567  40.0660 0000995  79.1763 280.9338 15.06392981 73059
STARLINK-2657           
1 48655U 21044T   22264.83478384  .00000195  00000+0  32004-4 0  9997
2 48655  53.0548  39.7824 0001340  68.9456 291.1676 15.06400016 73065
STARLINK-2701           
1 48656U 21044U   22265.56092919  .00009100  00000+0  62952-3 0  9994
2 48656  53.0560  36.5250 0001711  80.9242 279.1941 15.06370353 74014
STARLINK-2734           
1 48657U 21044V   22265.55723683  .00001691  00000+0  13240-3 0  9996
2 48657  53.0562  36.5291 0001427  74.7700 285.3447 15.06396083 74070
STARLINK-2647           
1 48658U 21044W   22265.55355191 -.00003254  00000+0 -19960-3 0  9996
2 48658  53.0533  36.5569 0001192  24.1347 335.9698 15.06415404 74071
STARLINK-2717           
1 48659U 21044X   22265.54987085  .00000044  00000+0  21838-4 0  9999
2 48659  53.0554  36.5674 0001279  60.9819 299.1298 15.06396914 74015
STARLINK-2688           
1 48660U 21044Y   22265.54618128  .00001372  00000+0  11103-3 0  9998
2 48660  53.0557  36.5861 0001432  72.0437 288.0708 15.06390336 74014
STARLINK-2708           
1 48661U 21044Z   22265.54709394  .00001234  00000+0  10171-3 0  9996
2 48661  53.0557  26.5660 0001563  59.4748 300.6395 15.06405337 74213
STARLINK-2726           
1 48662U 21044AA  22264.74726378 -.00000299  00000+0 -12012-5 0  9999
2 48662  53.0558  30.1796 0001270  84.3583 275.7551 15.06398777 73196
STARLINK-2667           
1 48663U 21044AB  22265.53974958 -.00001063  00000+0 -52472-4 0  9990
2 48663  53.0561  26.6151 0001165  78.7353 281.3767 15.06392363 74155
STARLINK-2709           
1 48664U 21044AC  22265.53604587  .00001004  00000+0  86266-4 0  9990
2 48664  53.0559  26.6323 0001357  42.4852 317.6242 15.06403112 74212
STARLINK-2653           
1 48665U 21044AD  22265.54984038  .00000340  00000+0  41731-4 0  9994
2 48665  53.0563  26.5547 0001503  67.9906 292.1243 15.06398091 74217
STARLINK-2666           
1 48666U 21044AE  22264.76573883 -.00000307  00000+0 -17060-5 0  9994
2 48666  53.0555  30.5689 0001557  68.6742 291.4413 15.06386131 73184
STARLINK-2735           
1 48667U 21044AF  22265.06792970  .00001016  00000+0  87089-4 0  9992
2 48667  53.0545  28.7368 0000950  87.2882 272.8216 15.06387350 74083
STARLINK-2738           
1 48668U 21044AG  22265.06424221  .00000838  00000+0  75139-4 0  9998
2 48668  53.0550  28.7427 0001288  81.7788 278.3347 15.06399794 74143
STARLINK-2707           
1 48669U 21044AH  22265.52498982  .00001251  00000+0  10287-3 0  9997
2 48669  53.0564  26.6643 0001587  64.8754 295.2400 15.06394841 74149
STARLINK-2763           
1 48670U 21044AJ  22264.85784149 -.00000814  00000+0 -35799-4 0  9999
2 48670  53.0565  29.6572 0001299  77.5478 282.5657 15.06388251 73207
STARLINK-2745           
1 48671U 21044AK  22264.85414438  .00001645  00000+0  12927-3 0  9999
2 48671  53.0550  29.6906 0001666  74.9990 285.1183 15.06404852 73200
STARLINK-2705           
1 48672U 21044AL  22265.51392662  .00001823  00000+0  14129-3 0  9992
2 48672  53.0567  26.7395 0001591  80.6693 279.4476 15.06395440 74204
STARLINK-2711           
1 48673U 21044AM  22265.51024950  .00000610  00000+0  59824-4 0  9990
2 48673  53.0558  26.7553 0001415  72.2688 287.8456 15.06414844 74208
STARLINK-2712           
1 48674U 21044AN  22265.57195688  .00001481  00000+0  11830-3 0  9995
2 48674  53.0562  26.4614 0001408  71.8359 288.2783 15.06397724 74217
STARLINK-2737           
1 48675U 21044AP  22264.77305527  .00000156  00000+0  29377-4 0  9996
2 48675  53.0589  30.0646 0001311  93.8339 266.2800 15.06395598 73197
STARLINK-2746           
1 48676U 21044AQ  22265.56553054  .00000402  00000+0  45902-4 0  9991
2 48676  53.0564  26.4949 0001464  77.4708 282.6444 15.06397049 74216
